[
    {
        "Altitude(m)": 611965.2092839857,
        "Argument of Periapsis(deg)": 0.0,
        "Eccentricity": 0.0,
        "Inclination(deg)": 60.0,
        "Latitude(deg)": 59.140234096320526,
        "Longitude(deg)": 173.96997507824477,
        "Mean Anomaly(deg)": 81.81819999999999,
        "RAAN(deg)": 200.0,
        "Satellite Name": "Test1 885",
        "Satellite Number": 885,
        "Semi-Major Axis(m)": 6980739.136638005,
        "Time(s)": 0
    },
    {
        "Altitude(m)": 611995.8341067309,
        "Argument of Periapsis(deg)": 0.00010418945913296404,
        "Eccentricity": 0.0,
        "Inclination(deg)": 60.0,
        "Latitude(deg)": 59.283332202202274,
        "Longitude(deg)": 175.10334052840648,
        "Mean Anomaly(deg)": 82.43830614546184,
        "RAAN(deg)": 199.99957995086027,
        "Satellite Name": "Test1 885",
        "Satellite Number": 885,
        "Semi-Major Axis(m)": 6980739.136638005,
        "Time(s)": 10
    }
]